{
  "type": "FeatureCollection",
  "features": [
    {
      "type": "Feature",
      "properties": {
        "norad_id": 66587,
        "name": "CZ-3B R/B",
        "group": "last-30-days",
        "lat": 51.24819488788199,
        "lon": -101.58482326892553,
        "alt_km": 20223.803019205436,
        "timestamp": "2025-12-02T19:35:49.344250+00:00",
        "meta_object_name": "CZ-3B R/B",
        "meta_object_id": "2025-269B",
        "meta_epoch": "2025-11-23T12:20:01.405824",
        "meta_mean_motion": 2.01516013,
        "meta_eccentricity": 0.75253415,
        "meta_inclination": 51.3768,
        "meta_ra_of_asc_node": 174.0599,
        "meta_arg_of_pericenter": 225.2938,
        "meta_mean_anomaly": 41.2116,
        "meta_ephemeris_type": 0,
        "meta_classification_type": "U",
        "meta_norad_cat_id": 66587,
        "meta_element_set_no": 999,
        "meta_rev_at_epoch": 6,
        "meta_bstar": 0.00049596604,
        "meta_mean_motion_dot": 0.0001032,
        "meta_mean_motion_ddot": -9.13844e-07,
        "tle_line1": "1 66587U 25269B   25327.51390516  .00010320 -91384-6  49597-3 0  9990",
        "tle_line2": "2 66587  51.3768 174.0599 7525341 225.2938  41.2116  2.01516013    67"
      },
      "geometry": {
        "type": "Point",
        "coordinates": [
          -101.58482326892553,
          51.24819488788199
        ]
      }
    },
    {
      "type": "Feature",
      "properties": {
        "norad_id": 66588,
        "name": "STARLINK-36076",
        "group": "last-30-days",
        "lat": -42.977761881543174,
        "lon": 162.10214520580365,
        "alt_km": 333.95782092396985,
        "timestamp": "2025-12-02T19:35:49.344268+00:00",
        "meta_object_name": "STARLINK-36076",
        "meta_object_id": "2025-270A",
        "meta_epoch": "2025-12-02T12:00:05.998752",
        "meta_mean_motion": 15.8056807,
        "meta_eccentricity": 0.0001758,
        "meta_inclination": 42.9989,
        "meta_ra_of_asc_node": 253.8305,
        "meta_arg_of_pericenter": 259.5576,
        "meta_mean_anomaly": 8.2563,
        "meta_ephemeris_type": 0,
        "meta_classification_type": "U",
        "meta_norad_cat_id": 66588,
        "meta_element_set_no": 999,
        "meta_rev_at_epoch": 275,
        "meta_bstar": -0.0090246,
        "meta_mean_motion_dot": -0.01558503,
        "meta_mean_motion_ddot": 0,
        "tle_line1": "1 66588U 25270A   25336.50006943 -.01558503  00000+0 -90246-2 0  9996",
        "tle_line2": "2 66588  42.9989 253.8305 0001758 259.5576   8.2563 15.80568070  2750"
      },
      "geometry": {
        "type": "Point",
        "coordinates": [
          162.10214520580365,
          -42.977761881543174
        ]
      }
    },
    {
      "type": "Feature",
      "properties": {
        "norad_id": 66589,
        "name": "STARLINK-35447",
        "group": "last-30-days",
        "lat": -42.855050809330336,
        "lon": 167.1924169009328,
        "alt_km": 333.8638024530601,
        "timestamp": "2025-12-02T19:35:49.344278+00:00",
        "meta_object_name": "STARLINK-35447",
        "meta_object_id": "2025-270B",
        "meta_epoch": "2025-12-02T12:00:05.998752",
        "meta_mean_motion": 15.80615525,
        "meta_eccentricity": 0.0001803,
        "meta_inclination": 42.9987,
        "meta_ra_of_asc_node": 253.8212,
        "meta_arg_of_pericenter": 254.4694,
        "meta_mean_anomaly": 17.0335,
        "meta_ephemeris_type": 0,
        "meta_classification_type": "U",
        "meta_norad_cat_id": 66589,
        "meta_element_set_no": 999,
        "meta_rev_at_epoch": 286,
        "meta_bstar": -0.0090739,
        "meta_mean_motion_dot": -0.01569015,
        "meta_mean_motion_ddot": 0,
        "tle_line1": "1 66589U 25270B   25336.50006943 -.01569015  00000+0 -90739-2 0  9994",
        "tle_line2": "2 66589  42.9987 253.8212 0001803 254.4694  17.0335 15.80615525  2867"
      },
      "geometry": {
        "type": "Point",
        "coordinates": [
          167.1924169009328,
          -42.855050809330336
        ]
      }
    },
    {
      "type": "Feature",
      "properties": {
        "norad_id": 66590,
        "name": "STARLINK-35429",
        "group": "last-30-days",
        "lat": -42.947526708536095,
        "lon": 164.53044229874092,
        "alt_km": 333.8715450456266,
        "timestamp": "2025-12-02T19:35:49.344289+00:00",
        "meta_object_name": "STARLINK-35429",
        "meta_object_id": "2025-270C",
        "meta_epoch": "2025-12-02T12:00:05.998752",
        "meta_mean_motion": 15.80600203,
        "meta_eccentricity": 0.0001752,
        "meta_inclination": 42.9988,
        "meta_ra_of_asc_node": 253.8263,
        "meta_arg_of_pericenter": 259.4564,
        "meta_mean_anomaly": 10.102,
        "meta_ephemeris_type": 0,
        "meta_classification_type": "U",
        "meta_norad_cat_id": 66590,
        "meta_element_set_no": 999,
        "meta_rev_at_epoch": 286,
        "meta_bstar": -0.0089923,
        "meta_mean_motion_dot": -0.01555649,
        "meta_mean_motion_ddot": 0,
        "tle_line1": "1 66590U 25270C   25336.50006943 -.01555649  00000+0 -89923-2 0  9997",
        "tle_line2": "2 66590  42.9988 253.8263 0001752 259.4564  10.1020 15.80600203  2862"
      },
      "geometry": {
        "type": "Point",
        "coordinates": [
          164.53044229874092,
          -42.947526708536095
        ]
      }
    },
    {
      "type": "Feature",
      "properties": {
        "norad_id": 66591,
        "name": "STARLINK-36058",
        "group": "last-30-days",
        "lat": -42.681519286862454,
        "lon": 170.11821406902365,
        "alt_km": 333.9294793817053,
        "timestamp": "2025-12-02T19:35:49.344300+00:00",
        "meta_object_name": "STARLINK-36058",
        "meta_object_id": "2025-270D",
        "meta_epoch": "2025-12-02T12:00:05.998752",
        "meta_mean_motion": 15.80604863,
        "meta_eccentricity": 0.0001731,
        "meta_inclination": 42.9987,
        "meta_ra_of_asc_node": 253.8158,
        "meta_arg_of_pericenter": 267.3802,
        "meta_mean_anomaly": 6.3138,
        "meta_ephemeris_type": 0,
        "meta_classification_type": "U",
        "meta_norad_cat_id": 66591,
        "meta_element_set_no": 999,
        "meta_rev_at_epoch": 275,
        "meta_bstar": -0.0092505,
        "meta_mean_motion_dot": -0.0159486,
        "meta_mean_motion_ddot": 0,
        "tle_line1": "1 66591U 25270D   25336.50006943 -.01594860  00000+0 -92505-2 0  9996",
        "tle_line2": "2 66591  42.9987 253.8158 0001731 267.3802   6.3138 15.80604863  2756"
      },
      "geometry": {
        "type": "Point",
        "coordinates": [
          170.11821406902365,
          -42.681519286862454
        ]
      }
    },
    {
      "type": "Feature",
      "properties": {
        "norad_id": 66592,
        "name": "STARLINK-36066",
        "group": "last-30-days",
        "lat": -42.45749269480817,
        "lon": 172.77980465687224,
        "alt_km": 333.87062656899525,
        "timestamp": "2025-12-02T19:35:49.344310+00:00",
        "meta_object_name": "STARLINK-36066",
        "meta_object_id": "2025-270E",
        "meta_epoch": "2025-12-02T12:00:05.998752",
        "meta_mean_motion": 15.80611709,
        "meta_eccentricity": 0.0001853,
        "meta_inclination": 42.9987,
        "meta_ra_of_asc_node": 253.8109,
        "meta_arg_of_pericenter": 262.8582,
        "meta_mean_anomaly": 12.8095,
        "meta_ephemeris_type": 0,
        "meta_classification_type": "U",
        "meta_norad_cat_id": 66592,
        "meta_element_set_no": 999,
        "meta_rev_at_epoch": 265,
        "meta_bstar": -0.0093196,
        "meta_mean_motion_dot": -0.01605784,
        "meta_mean_motion_ddot": 0,
        "tle_line1": "1 66592U 25270E   25336.50006943 -.01605784  00000+0 -93196-2 0  9992",
        "tle_line2": "2 66592  42.9987 253.8109 0001853 262.8582  12.8095 15.80611709  2653"
      },
      "geometry": {
        "type": "Point",
        "coordinates": [
          172.77980465687224,
          -42.45749269480817
        ]
      }
    },
    {
      "type": "Feature",
      "properties": {
        "norad_id": 66593,
        "name": "STARLINK-36031",
        "group": "last-30-days",
        "lat": -42.14915462530371,
        "lon": 175.6115585164051,
        "alt_km": 334.0295735849995,
        "timestamp": "2025-12-02T19:35:49.344320+00:00",
        "meta_object_name": "STARLINK-36031",
        "meta_object_id": "2025-270F",
        "meta_epoch": "2025-12-02T12:00:05.998752",
        "meta_mean_motion": 15.80607323,
        "meta_eccentricity": 0.0001724,
        "meta_inclination": 42.9989,
        "meta_ra_of_asc_node": 253.8057,
        "meta_arg_of_pericenter": 264.0395,
        "meta_mean_anomaly": 13.7718,
        "meta_ephemeris_type": 0,
        "meta_classification_type": "U",
        "meta_norad_cat_id": 66593,
        "meta_element_set_no": 999,
        "meta_rev_at_epoch": 275,
        "meta_bstar": -0.0095334,
        "meta_mean_motion_dot": -0.01637314,
        "meta_mean_motion_ddot": 0,
        "tle_line1": "1 66593U 25270F   25336.50006943 -.01637314  00000+0 -95334-2 0  9993",
        "tle_line2": "2 66593  42.9989 253.8057 0001724 264.0395  13.7718 15.80607323  2751"
      },
      "geometry": {
        "type": "Point",
        "coordinates": [
          175.6115585164051,
          -42.14915462530371
        ]
      }
    }
  ]
}